OBJECT B                
1 51825U 22019B   25330.94144883  .00042288  00000+0  73075-3 0  9997
2 51825  97.3699  50.1685 0009018 145.9320 214.2513 15.50820084208194
